LEMUR-2-LLOYD           
1 60577U 24149DP  26068.46001441  .00012007  00000+0  80143-3 0  9995
2 60577  97.6780 149.6779 0005186 125.6096 234.5616 15.07168338 85367
STARLINK-34684          
1 64862U 25152W   26068.84768852 -.00015974  00000+0 -11068-2 0  9996
2 64862  97.6016 285.7091 0002222  78.8862 281.2614 15.05599692 35447
