[{"OBJECT_NAME":"LEMUR-2-LLOYD","OBJECT_ID":"2024-149DP","EPOCH":"2026-03-09T11:02:25.245024","MEAN_MOTION":15.07168338,"ECCENTRICITY":0.00051866,"INCLINATION":97.678,"RA_OF_ASC_NODE":149.6779,"ARG_OF_PERICENTER":125.6096,"MEAN_ANOMALY":234.5616,"EPHEMERIS_TYPE":0,"CLASSIFICATION_TYPE":"U","NORAD_CAT_ID":60577,"ELEMENT_SET_NO":999,"REV_AT_EPOCH":8536,"BSTAR":0.00080142638,"MEAN_MOTION_DOT":0.00012007,"MEAN_MOTION_DDOT":0},{"OBJECT_NAME":"STARLINK-34684","OBJECT_ID":"2025-152W","EPOCH":"2026-03-09T20:20:40.288992","MEAN_MOTION":15.05599692,"ECCENTRICITY":0.00022225,"INCLINATION":97.6016,"RA_OF_ASC_NODE":285.7091,"ARG_OF_PERICENTER":78.8862,"MEAN_ANOMALY":281.2614,"EPHEMERIS_TYPE":0,"CLASSIFICATION_TYPE":"U","NORAD_CAT_ID":64862,"ELEMENT_SET_NO":999,"REV_AT_EPOCH":3544,"BSTAR":-0.0011068116,"MEAN_MOTION_DOT":-0.00015974,"MEAN_MOTION_DDOT":0}]
